BEIDOU-2 IGSO-1 (C06)   
1 36828U 10036A   25180.59680091 -.00000087  00000+0  00000+0 0  9995
2 36828  54.2779 166.1491 0049425 218.2844 216.0632  1.00273649 54566
BEIDOU-2 G4 (C04)       
1 37210U 10057A   25180.58100469 -.00000117  00000+0  00000+0 0  9993
2 37210   2.7715  70.4542 0004825 176.2319  40.3747  1.00271203 53758
BEIDOU-2 IGSO-2 (C07)   
1 37256U 10068A   25180.59360372 -.00000212  00000+0  00000+0 0  9993
2 37256  48.1831 276.1983 0047381 213.3974 109.2705  1.00286115 53251
BEIDOU-2 IGSO-3 (C08)   
1 37384U 11013A   25179.54891700 -.00000186  00000+0  00000+0 0  9993
2 37384  61.9012  43.4978 0030914 176.3811   2.0213  1.00263667 52113
BEIDOU-2 IGSO-4 (C09)   
1 37763U 11038A   25179.94448345 -.00000010  00000+0  00000+0 0  9994
2 37763  54.5803 168.8353 0144366 231.3134 312.2931  1.00275549 51109
BEIDOU-2 IGSO-5 (C10)   
1 37948U 11073A   25180.59638615 -.00000216  00000+0  00000+0 0  9990
2 37948  48.3197 275.9023 0108733 220.1153  91.9404  1.00285638 49596
BEIDOU-2 G5 (C05)       
1 38091U 12008A   25180.61977609  .00000052  00000+0  00000+0 0  9998
2 38091   2.6947  71.2527 0007477 266.2866 222.2047  1.00273817 48837
BEIDOU-2 M3 (C11)       
1 38250U 12018A   25179.87157672 -.00000095  00000+0  00000+0 0  9990
2 38250  56.0574 316.7605 0021231 266.8418  92.9071  1.86233654 89361
BEIDOU-2 M4 (C12)       
1 38251U 12018B   25180.34075136 -.00000096  00000+0  00000+0 0  9990
2 38251  55.9604 315.9873 0012155 267.0755  92.7790  1.86232043 89372
BEIDOU-2 M6 (C14)       
1 38775U 12050B   25177.36641061 -.00000054  00000+0  00000+0 0  9995
2 38775  56.2277  74.6884 0013579 350.7474   9.2636  1.86231014 86683
BEIDOU-2 G6 (C02)       
1 38953U 12059A   25180.58515650 -.00000180  00000+0  00000+0 0  9994
2 38953   3.5252  77.2202 0008933 320.7161 174.6486  1.00270082 46376
BEIDOU-3S IGSO-1S (C31) 
1 40549U 15019A   25179.80204123 -.00000194  00000+0  00000+0 0  9995
2 40549  49.8651 299.7138 0040268 192.3783 168.8637  1.00275523 37531
BEIDOU-3S M2S (C58)     
1 40748U 15037A   25178.93327837 -.00000093  00000+0  00000+0 0  9995
2 40748  55.1826 314.2185 0009188 251.0473 108.8443  1.86229270 67529
BEIDOU-3S M1S (C57)     
1 40749U 15037B   25178.64877346 -.00000093  00000+0  00000+0 0  9999
2 40749  55.1795 314.2198 0002959  24.5240 335.4802  1.86253802 67528
BEIDOU-3S IGSO-2S (C56) 
1 40938U 15053A   25179.65930065 -.00000130  00000+0  00000+0 0  9999
2 40938  49.7672 262.9823 0060114 189.2429 157.5761  1.00264680 35805
BEIDOU-2 IGSO-6 (C13)   
1 41434U 16021A   25180.58698098 -.00000163  00000+0  00000+0 0  9994
2 41434  59.7282  41.5537 0053994 228.6487 314.1595  1.00285327 33948
BEIDOU-2 G7 (C03)       
1 41586U 16037A   25180.62955367 -.00000358  00000+0  00000+0 0  9995
2 41586   1.7952  69.0829 0009634   9.3828 176.6381  1.00274481  3356
BEIDOU-3 M1 (C19)       
1 43001U 17069A   25179.27988138 -.00000052  00000+0  00000+0 0  9997
2 43001  56.3785  74.7694 0010045 320.0483  39.9201  1.86231382 52017
BEIDOU-3 M2 (C20)       
1 43002U 17069B   25176.53310197 -.00000057  00000+0  00000+0 0  9993
2 43002  56.3750  74.8970 0008762 345.5469  14.4597  1.86230797 51954
BEIDOU-3 M7 (C27)       
1 43107U 18003A   25180.03704998 -.00000097  00000+0  00000+0 0  9998
2 43107  54.6400 314.6058 0004368  89.6095 270.4350  1.86232589 50775
BEIDOU-3 M8 (C28)       
1 43108U 18003B   25179.44362743 -.00000095  00000+0  00000+0 0  9998
2 43108  54.6335 314.6100 0002978 252.9171 107.0430  1.86230982 50775
BEIDOU-3 M4 (C22)       
1 43207U 18018A   25179.88503607 -.00000053  00000+0  00000+0 0  9992
2 43207  56.3378  74.8256 0007291  14.7453 345.3188  1.86231313 50167
BEIDOU-3 M3 (C21)       
1 43208U 18018B   25179.95158895 -.00000054  00000+0  00000+0 0  9997
2 43208  56.3374  74.8275 0008261 335.8104  24.1938  1.86231206 50169
BEIDOU-3 M9 (C29)       
1 43245U 18029A   25180.16906295 -.00000095  00000+0  00000+0 0  9995
2 43245  54.5121 312.2708 0000927 176.0613 183.9361  1.86232794 49324
BEIDOU-3 M10 (C30)      
1 43246U 18029B   25177.41717173 -.00000092  00000+0  00000+0 0  9992
2 43246  54.5123 312.3944 0003372  29.2062 330.8005  1.86229140 49255
BEIDOU-2 IGSO-7 (C16)   
1 43539U 18057A   25179.88588789 -.00000093  00000+0  00000+0 0  9991
2 43539  55.1680 166.1154 0089767 236.6926 304.2426  1.00253412 25585
BEIDOU-3 M5 (C23)       
1 43581U 18062A   25180.32706064  .00000045  00000+0  00000+0 0  9999
2 43581  54.1002 194.3001 0005699 282.3479  77.6137  1.86228816 47067
BEIDOU-3 M6 (C24)       
1 43582U 18062B   25180.19107125  .00000044  00000+0  00000+0 0  9997
2 43582  54.0998 194.2939 0004626   0.9604 359.0661  1.86229705 47060
BEIDOU-3 M12 (C26)      
1 43602U 18067A   25180.12701805  .00000045  00000+0  00000+0 0  9994
2 43602  54.1934 193.0120 0007222  23.6183 336.4381  1.86227846 46546
BEIDOU-3 M11 (C25)      
1 43603U 18067B   25180.26109830  .00000046  00000+0  00000+0 0  9991
2 43603  54.1907 192.9719 0004118   5.7091 354.3184  1.86227336 46576
BEIDOU-3 M13 (C32)      
1 43622U 18072A   25177.53481167 -.00000054  00000+0  00000+0 0  9990
2 43622  56.3082  74.4244 0006764 322.9779  37.0126  1.86231355 46036
BEIDOU-3 M14 (C33)      
1 43623U 18072B   25180.08506700 -.00000055  00000+0  00000+0 0  9997
2 43623  56.3120  74.3334 0005589 356.1772   3.8622  1.86231453 46070
BEIDOU-3 M16 (C35)      
1 43647U 18078A   25180.24473073 -.00000096  00000+0  00000+0 0  9998
2 43647  54.4085 312.3361 0006727  32.2275 327.8102  1.86232280 45581
BEIDOU-3 M15 (C34)      
1 43648U 18078B   25180.37396061 -.00000096  00000+0  00000+0 0  9994
2 43648  54.4040 312.3331 0003750  49.7510 310.2789  1.86232388 45607
BEIDOU-3 G1 (C59)       
1 43683U 18085A   25180.59622337 -.00000282  00000+0  00000+0 0  9990
2 43683   2.6992 107.9952 0004205 354.2626 170.3275  1.00269674 24529
BEIDOU-3 M17 (C36)      
1 43706U 18093A   25180.52963868  .00000047  00000+0  00000+0 0  9993
2 43706  54.1835 194.2593 0010329 285.7463  74.1647  1.86228493 44977
BEIDOU-3 M18 (C37)      
1 43707U 18093B   25178.78109820  .00000043  00000+0  00000+0 0  9995
2 43707  54.1844 194.3105 0008156 311.5163  48.4445  1.86229970 44935
BEIDOU-3 IGSO-1 (C38)   
1 44204U 19023A   25180.60889549 -.00000222  00000+0  00000+0 0  9999
2 44204  58.1944  41.2885 0023428 217.3779 355.7079  1.00293930  3679
BEIDOU-2 G8 (C01)       
1 44231U 19027A   25180.59709218 -.00000252  00000+0  00000+0 0  9998
2 44231   1.7229  75.1834 0003901 253.4856 308.6935  1.00270560 22549
BEIDOU-3 IGSO-2 (C39)   
1 44337U 19035A   25180.57498374 -.00000099  00000+0  00000+0 0  9999
2 44337  55.2135 161.9588 0035620 210.9970 231.6930  1.00267273 22136
BEIDOU-3 M24 (C46)      
1 44542U 19061A   25179.92604167  .00000043  00000+0  00000+0 0  9990
2 44542  54.4114 194.6411 0008073 349.6193  10.3910  1.86229262 39216
BEIDOU-3 M23 (C45)      
1 44543U 19061B   25180.17020499  .00000044  00000+0  00000+0 0  9991
2 44543  54.4097 194.6011 0005638 328.5066 107.9513  1.86229464 39229
BEIDOU-3 IGSO-3 (C40)   
1 44709U 19073A   25179.69666031 -.00000205  00000+0  00000+0 0  9991
2 44709  55.4057 284.7160 0044755 188.6416 171.3124  1.00295449 20914
BEIDOU-3 M22 (C44)      
1 44793U 19078A   25179.76813056 -.00000095  00000+0  00000+0 0  9995
2 44793  54.2559 312.2385 0005737  41.5768 318.4624  1.86232212 38068
BEIDOU-3 M21 (C43)      
1 44794U 19078B   25179.36494270 -.00000094  00000+0  00000+0 0  9994
2 44794  54.2300 312.2207 0003713  40.1941 319.8279  1.86227790 38062
BEIDOU-3 M19 (C41)      
1 44864U 19090A   25180.38097113 -.00000056  00000+0  00000+0 0  9993
2 44864  56.2450  74.4800 0017324 292.3153 223.0167  1.86231724 37662
BEIDOU-3 M20 (C42)      
1 44865U 19090B   25180.18106399 -.00000055  00000+0  00000+0 0  9998
2 44865  56.2465  74.5206 0015264 306.6500 164.2984  1.86231596 37644
BEIDOU-3 G2 (C60)       
1 45344U 20017A   25180.58437458 -.00000146  00000+0  00000+0 0  9990
2 45344   2.8945  40.7403 0001696  45.5722 121.9863  1.00271956 19725
BEIDOU-3 G3 (C61)       
1 45807U 20040A   25180.62960848 -.00000358  00000+0  00000+0 0  9994
2 45807   1.5913  64.3730 0004815 343.8442 206.8237  1.00277558 18534
BEIDOU-3 G4 (C62)       
1 56564U 23066A   25180.58100469 -.00000115  00000+0  00000+0 0  9998
2 56564   1.1938 293.0086 0006482 188.6412 165.4361  1.00271143  7853
BEIDOU-3 M28 (C50)      
1 58654U 23207A   25179.98154513 -.00000056  00000+0  00000+0 0  9992
2 58654  55.4332  74.2482 0002756 339.4683  20.5633  1.86229954 10269
BEIDOU-3 M26 (C48)      
1 58655U 23207B   25180.31759182 -.00000057  00000+0  00000+0 0  9996
2 58655  55.4355  74.2228 0002630 305.6289  54.3896  1.86231753 10256
BEIDOU-3 M25 (C47)      
1 61186U 24168B   25180.13822997 -.00000096  00000+0  00000+0 0  9994
2 61186  54.7850 314.4870 0003345 287.8856  69.5223  1.86230139  5206
BEIDOU-3 M27 (C49)      
1 61187U 24168C   25180.45143362 -.00000097  00000+0  00000+0 0  9993
2 61187  54.7802 314.4604 0001180  38.3806 303.9039  1.86230216  2683
